{
  "norad_id": 67818,
  "name": "STARLINK-36346",
  "history": [
    {
      "epoch": "2026-04-14T20:00:01.999008Z",
      "apogee_km": 356.1411944186775,
      "perigee_km": 353.62977703150136,
      "latitude_deg": -59.689707362027725,
      "longitude_deg": -42.361104327488945,
      "height_km": 379.05093473942196,
      "semi_major_axis_km": 6733.022485725089,
      "eccentricity": 0.0001865,
      "inclination_deg": 97.2837,
      "raan_deg": 293.2085,
      "arg_perigee_deg": 91.7292,
      "mean_anomaly_deg": 148.5254,
      "mean_motion_rev_day": 15.71403314
    },
    {
      "epoch": "2026-04-15T20:00:01.999008Z",
      "apogee_km": 368.1125007005321,
      "perigee_km": 365.4657916807664,
      "latitude_deg": 53.48741873148396,
      "longitude_deg": -19.864695177269514,
      "height_km": 374.5827019650273,
      "semi_major_axis_km": 6744.926146190649,
      "eccentricity": 0.0001962,
      "inclination_deg": 97.2838,
      "raan_deg": 294.2475,
      "arg_perigee_deg": 87.9814,
      "mean_anomaly_deg": 37.9924,
      "mean_motion_rev_day": 15.67245256
    },
    {
      "epoch": "2026-04-16T20:00:01.999008Z",
      "apogee_km": 380.0733245329766,
      "perigee_km": 378.2542591598112,
      "latitude_deg": -3.5410812525204616,
      "longitude_deg": 150.7514673976948,
      "height_km": 383.1495712906001,
      "semi_major_axis_km": 6757.300791846394,
      "eccentricity": 0.0001346,
      "inclination_deg": 97.2844,
      "raan_deg": 295.2845,
      "arg_perigee_deg": 106.2438,
      "mean_anomaly_deg": 250.3497,
      "mean_motion_rev_day": 15.62942083
    },
    {
      "epoch": "2026-04-17T22:00:01.999584Z",
      "apogee_km": 393.4643897250953,
      "perigee_km": 391.24881339892,
      "latitude_deg": -40.57401676506494,
      "longitude_deg": 126.59351041214595,
      "height_km": 408.84380545161986,
      "semi_major_axis_km": 6770.493601562008,
      "eccentricity": 0.00016362,
      "inclination_deg": 97.2843,
      "raan_deg": 296.3961,
      "arg_perigee_deg": 99.3856,
      "mean_anomaly_deg": 219.9344,
      "mean_motion_rev_day": 15.58376046
    },
    {
      "epoch": "2026-04-18T20:00:01.000224Z",
      "apogee_km": 404.3321810782172,
      "perigee_km": 402.73170720739927,
      "latitude_deg": 51.81336977093338,
      "longitude_deg": 141.08299963804802,
      "height_km": 411.2980262375502,
      "semi_major_axis_km": 6781.668944142808,
      "eccentricity": 0.000118,
      "inclination_deg": 97.2844,
      "raan_deg": 297.3342,
      "arg_perigee_deg": 83.3118,
      "mean_anomaly_deg": 328.9967,
      "mean_motion_rev_day": 15.5452562
    },
    {
      "epoch": "2026-04-19T20:00:01.999008Z",
      "apogee_km": 417.55709394405403,
      "perigee_km": 414.73339024423876,
      "latitude_deg": -57.10897267343347,
      "longitude_deg": -40.93350670197292,
      "height_km": 439.7318203119427,
      "semi_major_axis_km": 6794.282242094146,
      "eccentricity": 0.0002078,
      "inclination_deg": 97.2849,
      "raan_deg": 298.3438,
      "arg_perigee_deg": 61.6143,
      "mean_anomaly_deg": 175.9801,
      "mean_motion_rev_day": 15.50198763
    },
    {
      "epoch": "2026-04-20T14:00:03.000384Z",
      "apogee_km": 420.3431539087078,
      "perigee_km": 417.9445294452962,
      "latitude_deg": 79.13433999908791,
      "longitude_deg": 101.89387424706624,
      "height_km": 431.5757760698707,
      "semi_major_axis_km": 6797.280841677002,
      "eccentricity": 0.00017644,
      "inclination_deg": 97.2853,
      "raan_deg": 299.1008,
      "arg_perigee_deg": 53.6525,
      "mean_anomaly_deg": 44.4864,
      "mean_motion_rev_day": 15.49173078
    },
    {
      "epoch": "2026-04-21T20:00:01.999008Z",
      "apogee_km": 420.4610149209457,
      "perigee_km": 418.23008114868117,
      "latitude_deg": -44.81444015318476,
      "longitude_deg": -36.804840636554054,
      "height_km": 437.7838122041602,
      "semi_major_axis_km": 6797.482548034814,
      "eccentricity": 0.0001641,
      "inclination_deg": 97.2854,
      "raan_deg": 300.3637,
      "arg_perigee_deg": 62.7361,
      "mean_anomaly_deg": 162.2604,
      "mean_motion_rev_day": 15.49104124
    },
    {
      "epoch": "2026-04-22T20:00:03.000384Z",
      "apogee_km": 420.12620022463216,
      "perigee_km": 418.36567804339757,
      "latitude_deg": 38.165637540734984,
      "longitude_deg": 144.734844718264,
      "height_km": 423.9115901439396,
      "semi_major_axis_km": 6797.382939134015,
      "eccentricity": 0.0001295,
      "inclination_deg": 97.2858,
      "raan_deg": 301.3715,
      "arg_perigee_deg": 68.4331,
      "mean_anomaly_deg": 330.022,
      "mean_motion_rev_day": 15.49138175
    },
    {
      "epoch": "2026-04-23T11:20:17.134656Z",
      "apogee_km": 420.380517286907,
      "perigee_km": 417.43427042394615,
      "latitude_deg": -2.9525881479311214e-05,
      "longitude_deg": -79.57805083590907,
      "height_km": 420.5782136129663,
      "semi_major_axis_km": 6797.044393855426,
      "eccentricity": 0.00021673,
      "inclination_deg": 97.2789,
      "raan_deg": 302.0125,
      "arg_perigee_deg": 7.0453,
      "mean_anomaly_deg": 353.0828,
      "mean_motion_rev_day": 15.49253915
    },
    {
      "epoch": "2026-04-24T19:54:01.457856Z",
      "apogee_km": 427.5052289366895,
      "perigee_km": 418.0084607717354,
      "latitude_deg": 6.701272392919369e-05,
      "longitude_deg": 152.0227685745824,
      "height_km": 421.19510408337317,
      "semi_major_axis_km": 6800.893844854212,
      "eccentricity": 0.0006982,
      "inclination_deg": 97.2847,
      "raan_deg": 303.3853,
      "arg_perigee_deg": 351.3015,
      "mean_anomaly_deg": 8.8114,
      "mean_motion_rev_day": 15.47938735
    },
    {
      "epoch": "2026-04-25T20:00:01.000224Z",
      "apogee_km": 438.799409918106,
      "perigee_km": 436.23808648793147,
      "latitude_deg": -2.154681648751687,
      "longitude_deg": -29.727507235908025,
      "height_km": 441.3808649895575,
      "semi_major_axis_km": 6815.655748203018,
      "eccentricity": 0.0001879,
      "inclination_deg": 97.2849,
      "raan_deg": 304.3969,
      "arg_perigee_deg": 72.3012,
      "mean_anomaly_deg": 109.712,
      "mean_motion_rev_day": 15.42912481
    },
    {
      "epoch": "2026-04-26T22:00:00.999936Z",
      "apogee_km": 452.0476490631163,
      "perigee_km": 450.05762320314625,
      "latitude_deg": 65.76491549303492,
      "longitude_deg": 104.15713276824303,
      "height_km": 461.5295171195701,
      "semi_major_axis_km": 6829.189636133131,
      "eccentricity": 0.0001457,
      "inclination_deg": 97.2851,
      "raan_deg": 305.4797,
      "arg_perigee_deg": 90.2038,
      "mean_anomaly_deg": 336.5298,
      "mean_motion_rev_day": 15.38328206
    },
    {
      "epoch": "2026-04-27T20:00:03.000384Z",
      "apogee_km": 464.24039570495916,
      "perigee_km": 462.31248539741046,
      "latitude_deg": 81.75441546606918,
      "longitude_deg": 31.857903003721994,
      "height_km": 475.81662583230485,
      "semi_major_axis_km": 6841.413440551184,
      "eccentricity": 0.0001409,
      "inclination_deg": 97.2843,
      "raan_deg": 306.3825,
      "arg_perigee_deg": 95.7209,
      "mean_anomaly_deg": 358.2447,
      "mean_motion_rev_day": 15.34207167
    },
    {
      "epoch": "2026-04-28T20:00:01.000224Z",
      "apogee_km": 464.2013351175392,
      "perigee_km": 462.17083042657214,
      "latitude_deg": -33.58661076939209,
      "longitude_deg": -34.282062894081974,
      "height_km": 476.5069479783819,
      "semi_major_axis_km": 6841.323082772055,
      "eccentricity": 0.0001484,
      "inclination_deg": 97.2842,
      "raan_deg": 307.3675,
      "arg_perigee_deg": 90.6681,
      "mean_anomaly_deg": 122.9385,
      "mean_motion_rev_day": 15.34237562
    },
    {
      "epoch": "2026-04-29T20:00:01.999008Z",
      "apogee_km": 464.21586839424435,
      "perigee_km": 462.1566300962222,
      "latitude_deg": -26.56524455739705,
      "longitude_deg": 154.20147176159657,
      "height_km": 473.72247342521604,
      "semi_major_axis_km": 6841.3232492452335,
      "eccentricity": 0.0001505,
      "inclination_deg": 97.284,
      "raan_deg": 308.3546,
      "arg_perigee_deg": 91.2184,
      "mean_anomaly_deg": 242.2589,
      "mean_motion_rev_day": 15.34237506
    },
    {
      "epoch": "2026-04-30T14:00:01.999872Z",
      "apogee_km": 464.0261794352555,
      "perigee_km": 461.9939482884647,
      "latitude_deg": 26.474268116963074,
      "longitude_deg": 64.18883406425194,
      "height_km": 466.06034333577486,
      "semi_major_axis_km": 6841.14706386186,
      "eccentricity": 0.00014853,
      "inclination_deg": 97.2836,
      "raan_deg": 309.0959,
      "arg_perigee_deg": 82.5793,
      "mean_anomaly_deg": 70.7361,
      "mean_motion_rev_day": 15.34296775
    },
    {
      "epoch": "2026-05-02T06:01:54.177600Z",
      "apogee_km": 465.6394551604335,
      "perigee_km": 460.48392782652445,
      "latitude_deg": 1.5317162997998378e-05,
      "longitude_deg": 0.0930163069779132,
      "height_km": 465.92130622598825,
      "semi_major_axis_km": 6841.198691493479,
      "eccentricity": 0.0003768,
      "inclination_deg": 97.2833,
      "raan_deg": 310.7408,
      "arg_perigee_deg": 84.502,
      "mean_anomaly_deg": 275.6653,
      "mean_motion_rev_day": 15.34279407
    },
    {
      "epoch": "2026-05-03T11:46:18.116544Z",
      "apogee_km": 464.976918749745,
      "perigee_km": 461.0529708172562,
      "latitude_deg": 3.230405784966565e-05,
      "longitude_deg": -86.00761229954318,
      "height_km": 466.1765981288323,
      "semi_major_axis_km": 6841.1519447835,
      "eccentricity": 0.00028679,
      "inclination_deg": 97.2803,
      "raan_deg": 311.9613,
      "arg_perigee_deg": 91.5532,
      "mean_anomaly_deg": 268.604,
      "mean_motion_rev_day": 15.34295133
    }
  ]
}